IRIDIUM 39              
1 25042U 97069D   25091.48381409  .00001638  00000+0  42545-3 0  9998
2 25042  86.3889 244.0004 0017289 196.9150 163.1480 14.49061479437854
IRIDIUM 38              
1 25043U 97069E   25091.55973123  .00000956  00000+0  30961-3 0  9998
2 25043  86.3901 265.3993 0002515  42.9757 317.1637 14.38011104434942
IRIDIUM 42              
1 25077U 97077A   25091.54167108  .00000857  00000+0  28699-3 0  9996
2 25077  86.3901 271.4884 0002280  72.0733 288.0712 14.36254481430191
IRIDIUM 44              
1 25078U 97077B   25091.49450227  .00001001  00000+0  31081-3 0  9999
2 25078  86.3917 253.6168 0000381  38.1537 321.9689 14.40142340432660
IRIDIUM 45              
1 25104U 97082A   25091.46488221  .00024033  00000+0  94441-3 0  9996
2 25104  86.3549  85.0596 0120953 258.0376 100.7287 15.18930669440385
IRIDIUM 24              
1 25105U 97082B   25091.56585692  .00000852  00000+0  25383-3 0  9990
2 25105  86.3863 112.8129 0010441 342.8170  17.2675 14.41984645432179
IRIDIUM 51              
1 25262U 98018A   25091.52100405  .00032529  00000+0  86046-3 0  9994
2 25262  86.3809  93.6207 0098530 181.4927 178.6046 15.33345059435256
IRIDIUM 57              
1 25273U 98019B   25091.51453908  .00000639  00000+0  21394-3 0  9997
2 25273  86.4032 177.3623 0002150  93.1698 266.9744 14.35820971413788
